[{"OBJECT_NAME":"STARLINK-4667","OBJECT_ID":"2022-107H","EPOCH":"2026-03-16T16:58:58.560672","MEAN_MOTION":15.08836419,"ECCENTRICITY":0.00012415,"INCLINATION":53.2163,"RA_OF_ASC_NODE":197.6308,"ARG_OF_PERICENTER":93.7784,"MEAN_ANOMALY":266.3351,"EPHEMERIS_TYPE":0,"CLASSIFICATION_TYPE":"U","NORAD_CAT_ID":53707,"ELEMENT_SET_NO":999,"REV_AT_EPOCH":19612,"BSTAR":4.4391746e-5,"MEAN_MOTION_DOT":4.19e-6,"MEAN_MOTION_DDOT":0},{"OBJECT_NAME":"STARLINK-4694","OBJECT_ID":"2022-107J","EPOCH":"2026-03-17T00:34:40.222560","MEAN_MOTION":15.08841817,"ECCENTRICITY":0.0001172,"INCLINATION":53.217,"RA_OF_ASC_NODE":196.0619,"ARG_OF_PERICENTER":98.3204,"MEAN_ANOMALY":261.7921,"EPHEMERIS_TYPE":0,"CLASSIFICATION_TYPE":"U","NORAD_CAT_ID":53708,"ELEMENT_SET_NO":999,"REV_AT_EPOCH":19617,"BSTAR":-4.1367779e-5,"MEAN_MOTION_DOT":-9.46e-6,"MEAN_MOTION_DDOT":0},{"OBJECT_NAME":"STARLINK-4685","OBJECT_ID":"2022-107K","EPOCH":"2026-03-17T01:51:28.618848","MEAN_MOTION":15.08841884,"ECCENTRICITY":0.00011275,"INCLINATION":53.2166,"RA_OF_ASC_NODE":215.651,"ARG_OF_PERICENTER":83.6755,"MEAN_ANOMALY":276.4365,"EPHEMERIS_TYPE":0,"CLASSIFICATION_TYPE":"U","NORAD_CAT_ID":53709,"ELEMENT_SET_NO":999,"REV_AT_EPOCH":19559,"BSTAR":7.312078e-6,"MEAN_MOTION_DOT":-1.71e-6,"MEAN_MOTION_DDOT":0},{"OBJECT_NAME":"STARLINK-4627","OBJECT_ID":"2022-107M","EPOCH":"2026-03-17T02:07:23.813184","MEAN_MOTION":15.08850342,"ECCENTRICITY":0.00011154,"INCLINATION":53.2183,"RA_OF_ASC_NODE":215.7107,"ARG_OF_PERICENTER":104.108,"MEAN_ANOMALY":256.0036,"EPHEMERIS_TYPE":0,"CLASSIFICATION_TYPE":"U","NORAD_CAT_ID":53711,"ELEMENT_SET_NO":999,"REV_AT_EPOCH":19559,"BSTAR":-1.5403568e-5,"MEAN_MOTION_DOT":-5.33e-6,"MEAN_MOTION_DDOT":0},{"OBJECT_NAME":"STARLINK-4683","OBJECT_ID":"2022-107N","EPOCH":"2026-03-16T15:57:56.539008","MEAN_MOTION":15.08839308,"ECCENTRICITY":0.00012677,"INCLINATION":53.217,"RA_OF_ASC_NODE":217.3513,"ARG_OF_PERICENTER":94.2487,"MEAN_ANOMALY":265.865,"EPHEMERIS_TYPE":0,"CLASSIFICATION_TYPE":"U","NORAD_CAT_ID":53712,"ELEMENT_SET_NO":999,"REV_AT_EPOCH":19555,"BSTAR":2.7731941e-5,"MEAN_MOTION_DOT":1.54e-6,"MEAN_MOTION_DDOT":0},{"OBJECT_NAME":"STARLINK-4686","OBJECT_ID":"2022-107R","EPOCH":"2026-03-16T19:37:14.931552","MEAN_MOTION":15.08832878,"ECCENTRICITY":0.00014402,"INCLINATION":53.2168,"RA_OF_ASC_NODE":221.8397,"ARG_OF_PERICENTER":79.6263,"MEAN_ANOMALY":280.4891,"EPHEMERIS_TYPE":0,"CLASSIFICATION_TYPE":"U","NORAD_CAT_ID":53715,"ELEMENT_SET_NO":999,"REV_AT_EPOCH":19549,"BSTAR":0.00020844972,"MEAN_MOTION_DOT":3.03e-5,"MEAN_MOTION_DDOT":0},{"OBJECT_NAME":"STARLINK-4699","OBJECT_ID":"2022-107S","EPOCH":"2026-03-16T16:21:09.110016","MEAN_MOTION":15.08841294,"ECCENTRICITY":0.00011509,"INCLINATION":53.2149,"RA_OF_ASC_NODE":222.4112,"ARG_OF_PERICENTER":86.682,"MEAN_ANOMALY":273.4304,"EPHEMERIS_TYPE":0,"CLASSIFICATION_TYPE":"U","NORAD_CAT_ID":53716,"ELEMENT_SET_NO":999,"REV_AT_EPOCH":19546,"BSTAR":-3.540703e-6,"MEAN_MOTION_DOT":-3.44e-6,"MEAN_MOTION_DDOT":0},{"OBJECT_NAME":"STARLINK-4695","OBJECT_ID":"2022-107U","EPOCH":"2026-03-17T03:14:26.452896","MEAN_MOTION":15.08824346,"ECCENTRICITY":0.00014761,"INCLINATION":53.2165,"RA_OF_ASC_NODE":220.9605,"ARG_OF_PERICENTER":86.6841,"MEAN_ANOMALY":273.432,"EPHEMERIS_TYPE":0,"CLASSIFICATION_TYPE":"U","NORAD_CAT_ID":53718,"ELEMENT_SET_NO":999,"REV_AT_EPOCH":19552,"BSTAR":5.74721e-5,"MEAN_MOTION_DOT":6.26e-6,"MEAN_MOTION_DDOT":0},{"OBJECT_NAME":"STARLINK-4644","OBJECT_ID":"2022-107V","EPOCH":"2026-03-17T00:06:09.116352","MEAN_MOTION":15.08840878,"ECCENTRICITY":9.998e-5,"INCLINATION":53.2179,"RA_OF_ASC_NODE":190.9073,"ARG_OF_PERICENTER":88.6231,"MEAN_ANOMALY":271.4875,"EPHEMERIS_TYPE":0,"CLASSIFICATION_TYPE":"U","NORAD_CAT_ID":53719,"ELEMENT_SET_NO":999,"REV_AT_EPOCH":19594,"BSTAR":3.3499078e-5,"MEAN_MOTION_DOT":2.45e-6,"MEAN_MOTION_DDOT":0},{"OBJECT_NAME":"STARLINK-4642","OBJECT_ID":"2022-107W","EPOCH":"2026-03-17T02:04:05.247840","MEAN_MOTION":15.08841946,"ECCENTRICITY":0.00013196,"INCLINATION":53.2156,"RA_OF_ASC_NODE":220.6749,"ARG_OF_PERICENTER":91.564,"MEAN_ANOMALY":268.5504,"EPHEMERIS_TYPE":0,"CLASSIFICATION_TYPE":"U","NORAD_CAT_ID":53720,"ELEMENT_SET_NO":999,"REV_AT_EPOCH":19553,"BSTAR":-4.101205e-5,"MEAN_MOTION_DOT":-9.41e-6,"MEAN_MOTION_DDOT":0},{"OBJECT_NAME":"STARLINK-4707","OBJECT_ID":"2022-107X","EPOCH":"2026-03-17T02:14:41.049024","MEAN_MOTION":15.08844092,"ECCENTRICITY":0.00012745,"INCLINATION":53.2156,"RA_OF_ASC_NODE":220.7202,"ARG_OF_PERICENTER":90.1099,"MEAN_ANOMALY":270.0039,"EPHEMERIS_TYPE":0,"CLASSIFICATION_TYPE":"U","NORAD_CAT_ID":53721,"ELEMENT_SET_NO":999,"REV_AT_EPOCH":19553,"BSTAR":1.4249914e-5,"MEAN_MOTION_DOT":-6.1e-7,"MEAN_MOTION_DDOT":0},{"OBJECT_NAME":"STARLINK-4700","OBJECT_ID":"2022-107Y","EPOCH":"2026-03-17T02:25:18.296544","MEAN_MOTION":15.08834718,"ECCENTRICITY":0.00012383,"INCLINATION":53.217,"RA_OF_ASC_NODE":220.7614,"ARG_OF_PERICENTER":83.9113,"MEAN_ANOMALY":276.202,"EPHEMERIS_TYPE":0,"CLASSIFICATION_TYPE":"U","NORAD_CAT_ID":53722,"ELEMENT_SET_NO":999,"REV_AT_EPOCH":19552,"BSTAR":2.8475432e-5,"MEAN_MOTION_DOT":1.65e-6,"MEAN_MOTION_DDOT":0},{"OBJECT_NAME":"STARLINK-4705","OBJECT_ID":"2022-107Z","EPOCH":"2026-03-16T19:26:36.681792","MEAN_MOTION":15.08843978,"ECCENTRICITY":0.00013112,"INCLINATION":53.2153,"RA_OF_ASC_NODE":221.7996,"ARG_OF_PERICENTER":122.1626,"MEAN_ANOMALY":237.9493,"EPHEMERIS_TYPE":0,"CLASSIFICATION_TYPE":"U","NORAD_CAT_ID":53723,"ELEMENT_SET_NO":999,"REV_AT_EPOCH":19563,"BSTAR":4.0321487e-5,"MEAN_MOTION_DOT":3.54e-6,"MEAN_MOTION_DDOT":0},{"OBJECT_NAME":"STARLINK-4663","OBJECT_ID":"2022-107AA","EPOCH":"2026-03-17T02:09:22.957056","MEAN_MOTION":15.08838349,"ECCENTRICITY":0.00012239,"INCLINATION":53.2164,"RA_OF_ASC_NODE":220.6973,"ARG_OF_PERICENTER":88.1613,"MEAN_ANOMALY":271.9519,"EPHEMERIS_TYPE":0,"CLASSIFICATION_TYPE":"U","NORAD_CAT_ID":53724,"ELEMENT_SET_NO":999,"REV_AT_EPOCH":19553,"BSTAR":-1.2522558e-5,"MEAN_MOTION_DOT":-4.87e-6,"MEAN_MOTION_DDOT":0},{"OBJECT_NAME":"STARLINK-4697","OBJECT_ID":"2022-107AC","EPOCH":"2026-03-17T02:20:00.498336","MEAN_MOTION":15.08841564,"ECCENTRICITY":0.00015294,"INCLINATION":53.2152,"RA_OF_ASC_NODE":220.7425,"ARG_OF_PERICENTER":90.9804,"MEAN_ANOMALY":269.1363,"EPHEMERIS_TYPE":0,"CLASSIFICATION_TYPE":"U","NORAD_CAT_ID":53726,"ELEMENT_SET_NO":999,"REV_AT_EPOCH":19553,"BSTAR":-3.1464967e-5,"MEAN_MOTION_DOT":-7.89e-6,"MEAN_MOTION_DDOT":0},{"OBJECT_NAME":"STARLINK-4701","OBJECT_ID":"2022-107AD","EPOCH":"2026-03-17T05:46:42.456288","MEAN_MOTION":15.08823038,"ECCENTRICITY":0.00011622,"INCLINATION":53.2162,"RA_OF_ASC_NODE":220.2167,"ARG_OF_PERICENTER":92.516,"MEAN_ANOMALY":267.5965,"EPHEMERIS_TYPE":0,"CLASSIFICATION_TYPE":"U","NORAD_CAT_ID":53727,"ELEMENT_SET_NO":999,"REV_AT_EPOCH":19569,"BSTAR":0.00010624052,"MEAN_MOTION_DOT":1.403e-5,"MEAN_MOTION_DDOT":0},{"OBJECT_NAME":"STARLINK-4640","OBJECT_ID":"2022-107AE","EPOCH":"2026-03-17T02:30:36.769536","MEAN_MOTION":15.08838479,"ECCENTRICITY":0.00012089,"INCLINATION":53.2156,"RA_OF_ASC_NODE":220.7869,"ARG_OF_PERICENTER":82.6741,"MEAN_ANOMALY":277.4388,"EPHEMERIS_TYPE":0,"CLASSIFICATION_TYPE":"U","NORAD_CAT_ID":53728,"ELEMENT_SET_NO":999,"REV_AT_EPOCH":19567,"BSTAR":1.7591401e-5,"MEAN_MOTION_DOT":-8.0e-8,"MEAN_MOTION_DDOT":0},{"OBJECT_NAME":"STARLINK-4651","OBJECT_ID":"2022-107AF","EPOCH":"2026-03-17T02:51:49.927968","MEAN_MOTION":15.08839271,"ECCENTRICITY":0.00011692,"INCLINATION":53.2162,"RA_OF_ASC_NODE":220.8779,"ARG_OF_PERICENTER":90.828,"MEAN_ANOMALY":269.2846,"EPHEMERIS_TYPE":0,"CLASSIFICATION_TYPE":"U","NORAD_CAT_ID":53729,"ELEMENT_SET_NO":999,"REV_AT_EPOCH":19570,"BSTAR":6.4454446e-5,"MEAN_MOTION_DOT":7.38e-6,"MEAN_MOTION_DDOT":0},{"OBJECT_NAME":"STARLINK-4641","OBJECT_ID":"2022-107AG","EPOCH":"2026-03-17T02:41:13.374240","MEAN_MOTION":15.08837449,"ECCENTRICITY":0.00013063,"INCLINATION":53.2166,"RA_OF_ASC_NODE":220.8341,"ARG_OF_PERICENTER":90.5797,"MEAN_ANOMALY":269.5344,"EPHEMERIS_TYPE":0,"CLASSIFICATION_TYPE":"U","NORAD_CAT_ID":53730,"ELEMENT_SET_NO":999,"REV_AT_EPOCH":19567,"BSTAR":2.4034782e-5,"MEAN_MOTION_DOT":9.5e-7,"MEAN_MOTION_DDOT":0},{"OBJECT_NAME":"STARLINK-4636","OBJECT_ID":"2022-107AH","EPOCH":"2026-03-17T02:28:09.010848","MEAN_MOTION":15.12186289,"ECCENTRICITY":0.00045248,"INCLINATION":53.2135,"RA_OF_ASC_NODE":220.0774,"ARG_OF_PERICENTER":167.218,"MEAN_ANOMALY":192.8929,"EPHEMERIS_TYPE":0,"CLASSIFICATION_TYPE":"U","NORAD_CAT_ID":53731,"ELEMENT_SET_NO":999,"REV_AT_EPOCH":19571,"BSTAR":0.0012422479,"MEAN_MOTION_DOT":0.00021456,"MEAN_MOTION_DDOT":0},{"OBJECT_NAME":"STARLINK-4661","OBJECT_ID":"2022-107AJ","EPOCH":"2026-03-15T17:24:48.790944","MEAN_MOTION":15.088349,"ECCENTRICITY":0.00012269,"INCLINATION":53.2168,"RA_OF_ASC_NODE":227.1061,"ARG_OF_PERICENTER":83.6695,"MEAN_ANOMALY":276.4437,"EPHEMERIS_TYPE":0,"CLASSIFICATION_TYPE":"U","NORAD_CAT_ID":53732,"ELEMENT_SET_NO":999,"REV_AT_EPOCH":19546,"BSTAR":6.2644825e-5,"MEAN_MOTION_DOT":7.09e-6,"MEAN_MOTION_DDOT":0},{"OBJECT_NAME":"STARLINK-4574","OBJECT_ID":"2022-107AK","EPOCH":"2026-03-17T03:07:45.411744","MEAN_MOTION":15.08842721,"ECCENTRICITY":0.0001363,"INCLINATION":53.2153,"RA_OF_ASC_NODE":220.9468,"ARG_OF_PERICENTER":71.7404,"MEAN_ANOMALY":288.3736,"EPHEMERIS_TYPE":0,"CLASSIFICATION_TYPE":"U","NORAD_CAT_ID":53733,"ELEMENT_SET_NO":999,"REV_AT_EPOCH":19570,"BSTAR":0.00015869501,"MEAN_MOTION_DOT":2.239e-5,"MEAN_MOTION_DDOT":0},{"OBJECT_NAME":"STARLINK-4616","OBJECT_ID":"2022-107AL","EPOCH":"2026-03-17T02:46:31.855872","MEAN_MOTION":15.08842905,"ECCENTRICITY":0.00011605,"INCLINATION":53.217,"RA_OF_ASC_NODE":220.8565,"ARG_OF_PERICENTER":87.217,"MEAN_ANOMALY":272.8955,"EPHEMERIS_TYPE":0,"CLASSIFICATION_TYPE":"U","NORAD_CAT_ID":53734,"ELEMENT_SET_NO":999,"REV_AT_EPOCH":19570,"BSTAR":1.4017933e-5,"MEAN_MOTION_DOT":-6.5e-7,"MEAN_MOTION_DDOT":0}]
